[{"OBJECT_NAME":"SL-8 R/B","OBJECT_ID":"1979-089B","EPOCH":"2026-04-18T05:03:22.327776","MEAN_MOTION":14.42375848,"ECCENTRICITY":0.00159499,"INCLINATION":74.0713,"RA_OF_ASC_NODE":17.8849,"ARG_OF_PERICENTER":183.8462,"MEAN_ANOMALY":176.2575,"EPHEMERIS_TYPE":0,"CLASSIFICATION_TYPE":"U","NORAD_CAT_ID":11574,"ELEMENT_SET_NO":999,"REV_AT_EPOCH":44180,"BSTAR":5.3182714e-5,"MEAN_MOTION_DOT":1.5e-6,"MEAN_MOTION_DDOT":0},{"OBJECT_NAME":"SL-14 R/B","OBJECT_ID":"1980-005B","EPOCH":"2026-04-19T04:43:16.414464","MEAN_MOTION":14.90975723,"ECCENTRICITY":0.00164725,"INCLINATION":82.5116,"RA_OF_ASC_NODE":268.798,"ARG_OF_PERICENTER":33.2304,"MEAN_ANOMALY":326.9946,"EPHEMERIS_TYPE":0,"CLASSIFICATION_TYPE":"U","NORAD_CAT_ID":11672,"ELEMENT_SET_NO":999,"REV_AT_EPOCH":48252,"BSTAR":3.6813648e-5,"MEAN_MOTION_DOT":3.9e-6,"MEAN_MOTION_DDOT":0},{"OBJECT_NAME":"SL-8 R/B","OBJECT_ID":"1981-003B","EPOCH":"2026-04-18T20:16:15.289824","MEAN_MOTION":15.12647007,"ECCENTRICITY":0.02571911,"INCLINATION":82.9372,"RA_OF_ASC_NODE":252.8397,"ARG_OF_PERICENTER":39.1129,"MEAN_ANOMALY":322.8382,"EPHEMERIS_TYPE":0,"CLASSIFICATION_TYPE":"U","NORAD_CAT_ID":12139,"ELEMENT_SET_NO":999,"REV_AT_EPOCH":32074,"BSTAR":0.00035564268,"MEAN_MOTION_DOT":0.0001432,"MEAN_MOTION_DDOT":0},{"OBJECT_NAME":"SL-3 R/B","OBJECT_ID":"1981-046B","EPOCH":"2026-04-19T06:19:21.988416","MEAN_MOTION":15.429682,"ECCENTRICITY":0.00182144,"INCLINATION":81.2313,"RA_OF_ASC_NODE":240.9778,"ARG_OF_PERICENTER":236.4408,"MEAN_ANOMALY":123.5097,"EPHEMERIS_TYPE":0,"CLASSIFICATION_TYPE":"U","NORAD_CAT_ID":12465,"ELEMENT_SET_NO":999,"REV_AT_EPOCH":44468,"BSTAR":0.00024247506,"MEAN_MOTION_DOT":0.0001077,"MEAN_MOTION_DDOT":0},{"OBJECT_NAME":"SL-3 R/B","OBJECT_ID":"1981-103B","EPOCH":"2026-04-19T05:09:15.876576","MEAN_MOTION":15.21808756,"ECCENTRICITY":0.00139867,"INCLINATION":81.159,"RA_OF_ASC_NODE":165.8867,"ARG_OF_PERICENTER":146.3825,"MEAN_ANOMALY":213.8297,"EPHEMERIS_TYPE":0,"CLASSIFICATION_TYPE":"U","NORAD_CAT_ID":12904,"ELEMENT_SET_NO":999,"REV_AT_EPOCH":97939,"BSTAR":0.00014087742,"MEAN_MOTION_DOT":3.231e-5,"MEAN_MOTION_DDOT":0},{"OBJECT_NAME":"SL-3 R/B","OBJECT_ID":"1982-013B","EPOCH":"2026-04-19T06:33:14.181120","MEAN_MOTION":15.22349835,"ECCENTRICITY":0.00231006,"INCLINATION":81.1711,"RA_OF_ASC_NODE":113.1848,"ARG_OF_PERICENTER":45.8742,"MEAN_ANOMALY":314.4385,"EPHEMERIS_TYPE":0,"CLASSIFICATION_TYPE":"U","NORAD_CAT_ID":13068,"ELEMENT_SET_NO":999,"REV_AT_EPOCH":41052,"BSTAR":0.00014281233,"MEAN_MOTION_DOT":3.344e-5,"MEAN_MOTION_DDOT":0},{"OBJECT_NAME":"SL-3 R/B","OBJECT_ID":"1982-039B","EPOCH":"2026-04-19T06:32:12.050880","MEAN_MOTION":15.10284462,"ECCENTRICITY":0.00280214,"INCLINATION":81.1508,"RA_OF_ASC_NODE":169.1537,"ARG_OF_PERICENTER":186.7663,"MEAN_ANOMALY":173.3189,"EPHEMERIS_TYPE":0,"CLASSIFICATION_TYPE":"U","NORAD_CAT_ID":13154,"ELEMENT_SET_NO":999,"REV_AT_EPOCH":38776,"BSTAR":6.7292779e-5,"MEAN_MOTION_DOT":1.135e-5,"MEAN_MOTION_DDOT":0},{"OBJECT_NAME":"SL-3 R/B","OBJECT_ID":"1982-079B","EPOCH":"2026-04-19T05:09:18.482400","MEAN_MOTION":15.25265083,"ECCENTRICITY":0.00247113,"INCLINATION":81.1446,"RA_OF_ASC_NODE":145.2132,"ARG_OF_PERICENTER":32.065,"MEAN_ANOMALY":328.208,"EPHEMERIS_TYPE":0,"CLASSIFICATION_TYPE":"U","NORAD_CAT_ID":13403,"ELEMENT_SET_NO":999,"REV_AT_EPOCH":38387,"BSTAR":0.00013322633,"MEAN_MOTION_DOT":3.406e-5,"MEAN_MOTION_DDOT":0},{"OBJECT_NAME":"SL-14 R/B","OBJECT_ID":"1982-092B","EPOCH":"2026-04-19T07:14:42.599616","MEAN_MOTION":14.8670085,"ECCENTRICITY":0.00207877,"INCLINATION":82.5647,"RA_OF_ASC_NODE":103.3992,"ARG_OF_PERICENTER":162.1305,"MEAN_ANOMALY":290.2639,"EPHEMERIS_TYPE":0,"CLASSIFICATION_TYPE":"U","NORAD_CAT_ID":13553,"ELEMENT_SET_NO":999,"REV_AT_EPOCH":33496,"BSTAR":3.0579883e-5,"MEAN_MOTION_DOT":2.98e-6,"MEAN_MOTION_DDOT":0},{"OBJECT_NAME":"SL-3 R/B","OBJECT_ID":"1983-010B","EPOCH":"2026-04-19T01:21:54.533952","MEAN_MOTION":15.47580346,"ECCENTRICITY":0.0015041,"INCLINATION":81.1008,"RA_OF_ASC_NODE":312.7035,"ARG_OF_PERICENTER":266.2672,"MEAN_ANOMALY":93.6853,"EPHEMERIS_TYPE":0,"CLASSIFICATION_TYPE":"U","NORAD_CAT_ID":13819,"ELEMENT_SET_NO":999,"REV_AT_EPOCH":36418,"BSTAR":0.00022393763,"MEAN_MOTION_DOT":0.00011616,"MEAN_MOTION_DDOT":0},{"OBJECT_NAME":"SL-3 R/B","OBJECT_ID":"1983-075B","EPOCH":"2026-04-19T06:16:50.721888","MEAN_MOTION":15.39338096,"ECCENTRICITY":0.00231969,"INCLINATION":97.6128,"RA_OF_ASC_NODE":115.4063,"ARG_OF_PERICENTER":85.5519,"MEAN_ANOMALY":274.8376,"EPHEMERIS_TYPE":0,"CLASSIFICATION_TYPE":"U","NORAD_CAT_ID":14208,"ELEMENT_SET_NO":999,"REV_AT_EPOCH":33639,"BSTAR":0.00024472115,"MEAN_MOTION_DOT":9.555e-5,"MEAN_MOTION_DDOT":0},{"OBJECT_NAME":"COSMOS 1536","OBJECT_ID":"1984-013A","EPOCH":"2026-04-19T03:54:35.919936","MEAN_MOTION":15.24369548,"ECCENTRICITY":0.00157076,"INCLINATION":82.5447,"RA_OF_ASC_NODE":67.5912,"ARG_OF_PERICENTER":134.2922,"MEAN_ANOMALY":225.9607,"EPHEMERIS_TYPE":0,"CLASSIFICATION_TYPE":"U","NORAD_CAT_ID":14699,"ELEMENT_SET_NO":999,"REV_AT_EPOCH":27878,"BSTAR":0.0002449295,"MEAN_MOTION_DOT":6.049e-5,"MEAN_MOTION_DDOT":0},{"OBJECT_NAME":"SL-14 R/B","OBJECT_ID":"1984-027B","EPOCH":"2026-04-19T05:30:48.174336","MEAN_MOTION":14.86017867,"ECCENTRICITY":0.00175929,"INCLINATION":82.5443,"RA_OF_ASC_NODE":206.9963,"ARG_OF_PERICENTER":194.4593,"MEAN_ANOMALY":165.6122,"EPHEMERIS_TYPE":0,"CLASSIFICATION_TYPE":"U","NORAD_CAT_ID":14820,"ELEMENT_SET_NO":999,"REV_AT_EPOCH":25365,"BSTAR":3.3433162e-5,"MEAN_MOTION_DOT":3.17e-6,"MEAN_MOTION_DDOT":0},{"OBJECT_NAME":"SL-8 R/B","OBJECT_ID":"1985-006B","EPOCH":"2026-04-19T03:28:32.293344","MEAN_MOTION":14.37808995,"ECCENTRICITY":0.00171976,"INCLINATION":74.0462,"RA_OF_ASC_NODE":186.7089,"ARG_OF_PERICENTER":91.2127,"MEAN_ANOMALY":288.2705,"EPHEMERIS_TYPE":0,"CLASSIFICATION_TYPE":"U","NORAD_CAT_ID":15483,"ELEMENT_SET_NO":999,"REV_AT_EPOCH":15984,"BSTAR":6.0781479e-5,"MEAN_MOTION_DOT":1.57e-6,"MEAN_MOTION_DDOT":0},{"OBJECT_NAME":"SL-12 R/B(2)","OBJECT_ID":"1985-042D","EPOCH":"2026-04-19T03:53:48.108768","MEAN_MOTION":14.21993735,"ECCENTRICITY":0.0033214,"INCLINATION":71.1103,"RA_OF_ASC_NODE":2.2224,"ARG_OF_PERICENTER":61.0454,"MEAN_ANOMALY":100.1294,"EPHEMERIS_TYPE":0,"CLASSIFICATION_TYPE":"U","NORAD_CAT_ID":15772,"ELEMENT_SET_NO":999,"REV_AT_EPOCH":12014,"BSTAR":1.836102e-5,"MEAN_MOTION_DOT":-7.0e-8,"MEAN_MOTION_DDOT":0},{"OBJECT_NAME":"SL-14 R/B","OBJECT_ID":"1985-069B","EPOCH":"2026-04-19T03:14:05.127648","MEAN_MOTION":14.86472943,"ECCENTRICITY":0.00201643,"INCLINATION":82.5285,"RA_OF_ASC_NODE":346.9118,"ARG_OF_PERICENTER":60.7845,"MEAN_ANOMALY":299.5385,"EPHEMERIS_TYPE":0,"CLASSIFICATION_TYPE":"U","NORAD_CAT_ID":15945,"ELEMENT_SET_NO":999,"REV_AT_EPOCH":17884,"BSTAR":3.1903267e-5,"MEAN_MOTION_DOT":3.08e-6,"MEAN_MOTION_DDOT":0},{"OBJECT_NAME":"SL-16 R/B","OBJECT_ID":"1985-097B","EPOCH":"2026-04-19T06:06:16.699680","MEAN_MOTION":14.16607031,"ECCENTRICITY":0.00084278,"INCLINATION":71.0037,"RA_OF_ASC_NODE":55.1488,"ARG_OF_PERICENTER":210.2448,"MEAN_ANOMALY":305.699,"EPHEMERIS_TYPE":0,"CLASSIFICATION_TYPE":"U","NORAD_CAT_ID":16182,"ELEMENT_SET_NO":999,"REV_AT_EPOCH":9297,"BSTAR":3.8756957e-5,"MEAN_MOTION_DOT":2.9e-7,"MEAN_MOTION_DDOT":0}]
