SL-8 R/B                
1 11574U 79089B   26108.21067509  .00000150  00000+0  53183-4 0  9997
2 11574  74.0713  17.8849 0015949 183.8462 176.2575 14.42375848441805
SL-14 R/B               
1 11672U 80005B   26109.19671776  .00000390  00000+0  36814-4 0  9999
2 11672  82.5116 268.7980 0016472  33.2304 326.9946 14.90975723482524
SL-8 R/B                
1 12139U 81003B   26108.84462141  .00014320  00000+0  35564-3 0  9990
2 12139  82.9372 252.8397 0257191  39.1129 322.8382 15.12647007320742
SL-3 R/B                
1 12465U 81046B   26109.26344894  .00010770  00000+0  24248-3 0  9992
2 12465  81.2313 240.9778 0018214 236.4408 123.5097 15.42968200444688
SL-3 R/B                
1 12904U 81103B   26109.21476709  .00003231  00000+0  14088-3 0  9995
2 12904  81.1590 165.8867 0013986 146.3825 213.8297 15.21808756979391
SL-3 R/B                
1 13068U 82013B   26109.27308080  .00003344  00000+0  14281-3 0  9990
2 13068  81.1711 113.1848 0023100  45.8742 314.4385 15.22349835410523
SL-3 R/B                
1 13154U 82039B   26109.27236170  .00001135  00000+0  67293-4 0  9992
2 13154  81.1508 169.1537 0028021 186.7663 173.3189 15.10284462387767
SL-3 R/B                
1 13403U 82079B   26109.21479725  .00003406  00000+0  13323-3 0  9999
2 13403  81.1446 145.2132 0024711  32.0650 328.2080 15.25265083383875
SL-14 R/B               
1 13553U 82092B   26109.30188194  .00000298  00000+0  30580-4 0  9998
2 13553  82.5647 103.3992 0020787 162.1305 290.2639 14.86700850334965
SL-3 R/B                
1 13819U 83010B   26109.05688118  .00011616  00000+0  22394-3 0  9996
2 13819  81.1008 312.7035 0015041 266.2672  93.6853 15.47580346364184
SL-3 R/B                
1 14208U 83075B   26109.26169817  .00009555  00000+0  24472-3 0  9991
2 14208  97.6128 115.4063 0023196  85.5519 274.8376 15.39338096336392
COSMOS 1536             
1 14699U 84013A   26109.16291574  .00006049  00000+0  24493-3 0  9991
2 14699  82.5447  67.5912 0015707 134.2922 225.9607 15.24369548278784
SL-14 R/B               
1 14820U 84027B   26109.22972424  .00000317  00000+0  33433-4 0  9996
2 14820  82.5443 206.9963 0017592 194.4593 165.6122 14.86017867253659
SL-8 R/B                
1 15483U 85006B   26109.14481821  .00000157  00000+0  60781-4 0  9995
2 15483  74.0462 186.7089 0017197  91.2127 288.2705 14.37808995159845
SL-12 R/B(2)            
1 15772U 85042D   26109.16236237 -.00000007  00000+0  18361-4 0  9999
2 15772  71.1103   2.2224 0033214  61.0454 100.1294 14.21993735120141
SL-14 R/B               
1 15945U 85069B   26109.13478157  .00000308  00000+0  31903-4 0  9996
2 15945  82.5285 346.9118 0020164  60.7845 299.5385 14.86472943178848
SL-16 R/B               
1 16182U 85097B   26109.25435995  .00000029  00000+0  38757-4 0  9991
2 16182  71.0037  55.1488 0008427 210.2448 305.6990 14.16607031 92979
